[{"OBJECT_NAME":"ZIYUAN 1-02C (ZY 1-02C)","OBJECT_ID":"2011-079A","EPOCH":"2026-03-10T00:21:45.280224","MEAN_MOTION":14.38123973,"ECCENTRICITY":0.00053834,"INCLINATION":98.4167,"RA_OF_ASC_NODE":138.3624,"ARG_OF_PERICENTER":238.9134,"MEAN_ANOMALY":241.9717,"EPHEMERIS_TYPE":0,"CLASSIFICATION_TYPE":"U","NORAD_CAT_ID":38038,"ELEMENT_SET_NO":999,"REV_AT_EPOCH":74495,"BSTAR":0.00018700518,"MEAN_MOTION_DOT":5.24e-6,"MEAN_MOTION_DDOT":0},{"OBJECT_NAME":"SL-8 R\/B","OBJECT_ID":"1977-119B","EPOCH":"2026-03-09T14:13:03.608832","MEAN_MOTION":14.4239387,"ECCENTRICITY":0.0018985,"INCLINATION":74.0258,"RA_OF_ASC_NODE":123.6853,"ARG_OF_PERICENTER":78.6806,"MEAN_ANOMALY":281.6482,"EPHEMERIS_TYPE":0,"CLASSIFICATION_TYPE":"U","NORAD_CAT_ID":10521,"ELEMENT_SET_NO":999,"REV_AT_EPOCH":53110,"BSTAR":9.955e-5,"MEAN_MOTION_DOT":3.03e-6,"MEAN_MOTION_DDOT":0}]
